[
    {
        "Altitude(m)": 555601.0781249723,
        "Argument of Periapsis(deg)": 0.033114955553567506,
        "Eccentricity": 0.0,
        "Inclination(deg)": 53.0,
        "Latitude(deg)": 33.25975399466501,
        "Longitude(deg)": 30.45329189205892,
        "Mean Anomaly(deg)": 43.185364337887826,
        "RAAN(deg)": 104.95071684264009,
        "Satellite Name": "Starlink Shell 1 483",
        "Satellite Number": 483,
        "Semi-Major Axis(m)": 6931778.249405717,
        "Time(s)": 950
    },
    {
        "Altitude(m)": 555680.9590674553,
        "Argument of Periapsis(deg)": 0.03346353403307874,
        "Eccentricity": 0.0,
        "Inclination(deg)": 53.0,
        "Latitude(deg)": 33.696262913329875,
        "Longitude(deg)": 30.952383312918634,
        "Mean Anomaly(deg)": 43.81219554144461,
        "RAAN(deg)": 104.95019807256261,
        "Satellite Name": "Starlink Shell 1 483",
        "Satellite Number": 483,
        "Semi-Major Axis(m)": 6931778.249405717,
        "Time(s)": 960
    },
    {
        "Altitude(m)": 555761.4471205109,
        "Argument of Periapsis(deg)": 0.03381211251258998,
        "Eccentricity": 0.0,
        "Inclination(deg)": 53.0,
        "Latitude(deg)": 34.13035354704202,
        "Longitude(deg)": 31.45694663772097,
        "Mean Anomaly(deg)": 44.43902674500138,
        "RAAN(deg)": 104.94967930248514,
        "Satellite Name": "Starlink Shell 1 483",
        "Satellite Number": 483,
        "Semi-Major Axis(m)": 6931778.249405717,
        "Time(s)": 970
    },
    {
        "Altitude(m)": 555842.4866870967,
        "Argument of Periapsis(deg)": 0.034160690992101214,
        "Eccentricity": 0.0,
        "Inclination(deg)": 53.0,
        "Latitude(deg)": 34.56196219636269,
        "Longitude(deg)": 31.967097209491474,
        "Mean Anomaly(deg)": 45.06585794855801,
        "RAAN(deg)": 104.94916053240767,
        "Satellite Name": "Starlink Shell 1 483",
        "Satellite Number": 483,
        "Semi-Major Axis(m)": 6931778.249405717,
        "Time(s)": 980
    },
    {
        "Altitude(m)": 555924.0220968006,
        "Argument of Periapsis(deg)": 0.034509269471612446,
        "Eccentricity": 0.0,
        "Inclination(deg)": 53.0,
        "Latitude(deg)": 34.99102368975787,
        "Longitude(deg)": 32.482951804548456,
        "Mean Anomaly(deg)": 45.69268915211478,
        "RAAN(deg)": 104.9486417623302,
        "Satellite Name": "Starlink Shell 1 483",
        "Satellite Number": 483,
        "Semi-Major Axis(m)": 6931778.249405717,
        "Time(s)": 990
    }
]